STARLINK-36339          
1 67340U 26003G   26019.91668981 -.01505805  00000+0 -66123-2 0  9992
2 67340  42.9982 149.0510 0001530 276.4099 313.0813 15.86229792  2835
STARLINK-36453          
1 67341U 26003H   26019.91668981 -.01518969  00000+0 -66784-2 0  9991
2 67341  42.9985 149.0443 0001611 278.2158 313.8313 15.86226904  2835
STARLINK-36432          
1 67342U 26003J   26019.91668981 -.01537341  00000+0 -67685-2 0  9998
2 67342  42.9983 149.0386 0001522 278.5627 315.8398 15.86233021  2827
STARLINK-36458          
1 67343U 26003K   26019.91668981 -.01530543  00000+0 -67319-2 0  9990
2 67343  42.9984 149.0337 0001438 277.0956 319.3178 15.86241956  2832
STARLINK-36422          
1 67344U 26003L   26019.91668981 -.01550410  00000+0 -68326-2 0  9995
2 67344  42.9981 149.0267 0001523 275.9173 323.1061 15.86236916  2828
STARLINK-35676          
1 67345U 26003M   26019.91668981 -.01554248  00000+0 -68542-2 0  9999
2 67345  42.9984 149.0206 0001533 277.6287 323.8897 15.86229948  2822
STARLINK-36472          
1 67346U 26003N   26019.91668981 -.01556127  00000+0 -68602-2 0  9995
2 67346  42.9985 149.0149 0001569 277.5668 326.0628 15.86239773  2825
STARLINK-36420          
1 67347U 26003P   26019.91668981 -.01576303  00000+0 -69598-2 0  9999
2 67347  42.9986 149.0033 0001636 278.9628 329.3741 15.86244155  2838
STARLINK-36467          
1 67348U 26003Q   26019.91668981 -.01569339  00000+0 -69284-2 0  9993
2 67348  42.9986 149.0092 0001642 278.9187 327.2896 15.86233667  2835
STARLINK-36457          
1 67349U 26003R   26019.91668981 -.01586049  00000+0 -70144-2 0  9998
2 67349  42.9986 148.9967 0001541 274.9326 336.0654 15.86229884  2830
STARLINK-36475          
1 67350U 26003S   26019.91668981 -.01598003  00000+0 -70770-2 0  9998
2 67350  42.9986 148.9900 0001540 279.1743 334.3770 15.86223575  2828
STARLINK-36478          
1 67351U 26003T   26019.91668981 -.01599793  00000+0 -70820-2 0  9992
2 67351  42.9985 148.9850 0001400 276.9795 338.5762 15.86236889  2828
