CCSDS_OMM_VERS = 2.0
CREATION_DATE  = 
ORIGINATOR     = 

OBJECT_NAME    = STARLINK-36339
OBJECT_ID      = 2026-003G
CENTER_NAME    = EARTH
REF_FRAME      = TEME
TIME_SYSTEM    = UTC
MEAN_ELEMENT_THEORY = SGP/SGP4

EPOCH          = 2026-01-19T22:00:01.999584
MEAN_MOTION    = 15.86229792
ECCENTRICITY   = .00015301
INCLINATION    = 42.9982
RA_OF_ASC_NODE = 149.0510
ARG_OF_PERICENTER = 276.4099
MEAN_ANOMALY   = 313.0813

EPHEMERIS_TYPE = 0
CLASSIFICATION_TYPE = U
NORAD_CAT_ID   = 67340
ELEMENT_SET_NO = 999
REV_AT_EPOCH   = 283
BSTAR          = -.66122516E-2
MEAN_MOTION_DOT = -.1505805E-1
MEAN_MOTION_DDOT = 0

CCSDS_OMM_VERS = 2.0
CREATION_DATE  = 
ORIGINATOR     = 

OBJECT_NAME    = STARLINK-36453
OBJECT_ID      = 2026-003H
CENTER_NAME    = EARTH
REF_FRAME      = TEME
TIME_SYSTEM    = UTC
MEAN_ELEMENT_THEORY = SGP/SGP4

EPOCH          = 2026-01-19T22:00:01.999584
MEAN_MOTION    = 15.86226904
ECCENTRICITY   = .00016119
INCLINATION    = 42.9985
RA_OF_ASC_NODE = 149.0443
ARG_OF_PERICENTER = 278.2158
MEAN_ANOMALY   = 313.8313

EPHEMERIS_TYPE = 0
CLASSIFICATION_TYPE = U
NORAD_CAT_ID   = 67341
ELEMENT_SET_NO = 999
REV_AT_EPOCH   = 283
BSTAR          = -.66784318E-2
MEAN_MOTION_DOT = -.1518969E-1
MEAN_MOTION_DDOT = 0

CCSDS_OMM_VERS = 2.0
CREATION_DATE  = 
ORIGINATOR     = 

OBJECT_NAME    = STARLINK-36432
OBJECT_ID      = 2026-003J
CENTER_NAME    = EARTH
REF_FRAME      = TEME
TIME_SYSTEM    = UTC
MEAN_ELEMENT_THEORY = SGP/SGP4

EPOCH          = 2026-01-19T22:00:01.999584
MEAN_MOTION    = 15.86233021
ECCENTRICITY   = .00015225
INCLINATION    = 42.9983
RA_OF_ASC_NODE = 149.0386
ARG_OF_PERICENTER = 278.5627
MEAN_ANOMALY   = 315.8398

EPHEMERIS_TYPE = 0
CLASSIFICATION_TYPE = U
NORAD_CAT_ID   = 67342
ELEMENT_SET_NO = 999
REV_AT_EPOCH   = 282
BSTAR          = -.67685104E-2
MEAN_MOTION_DOT = -.1537341E-1
MEAN_MOTION_DDOT = 0

CCSDS_OMM_VERS = 2.0
CREATION_DATE  = 
ORIGINATOR     = 

OBJECT_NAME    = STARLINK-36458
OBJECT_ID      = 2026-003K
CENTER_NAME    = EARTH
REF_FRAME      = TEME
TIME_SYSTEM    = UTC
MEAN_ELEMENT_THEORY = SGP/SGP4

EPOCH          = 2026-01-19T22:00:01.999584
MEAN_MOTION    = 15.86241956
ECCENTRICITY   = .00014388
INCLINATION    = 42.9984
RA_OF_ASC_NODE = 149.0337
ARG_OF_PERICENTER = 277.0956
MEAN_ANOMALY   = 319.3178

EPHEMERIS_TYPE = 0
CLASSIFICATION_TYPE = U
NORAD_CAT_ID   = 67343
ELEMENT_SET_NO = 999
REV_AT_EPOCH   = 283
BSTAR          = -.67318772E-2
MEAN_MOTION_DOT = -.1530543E-1
MEAN_MOTION_DDOT = 0

CCSDS_OMM_VERS = 2.0
CREATION_DATE  = 
ORIGINATOR     = 

OBJECT_NAME    = STARLINK-36422
OBJECT_ID      = 2026-003L
CENTER_NAME    = EARTH
REF_FRAME      = TEME
TIME_SYSTEM    = UTC
MEAN_ELEMENT_THEORY = SGP/SGP4

EPOCH          = 2026-01-19T22:00:01.999584
MEAN_MOTION    = 15.86236916
ECCENTRICITY   = .00015234
INCLINATION    = 42.9981
RA_OF_ASC_NODE = 149.0267
ARG_OF_PERICENTER = 275.9173
MEAN_ANOMALY   = 323.1061

EPHEMERIS_TYPE = 0
CLASSIFICATION_TYPE = U
NORAD_CAT_ID   = 67344
ELEMENT_SET_NO = 999
REV_AT_EPOCH   = 282
BSTAR          = -.68326487E-2
MEAN_MOTION_DOT = -.155041E-1
MEAN_MOTION_DDOT = 0

CCSDS_OMM_VERS = 2.0
CREATION_DATE  = 
ORIGINATOR     = 

OBJECT_NAME    = STARLINK-35676
OBJECT_ID      = 2026-003M
CENTER_NAME    = EARTH
REF_FRAME      = TEME
TIME_SYSTEM    = UTC
MEAN_ELEMENT_THEORY = SGP/SGP4

EPOCH          = 2026-01-19T22:00:01.999584
MEAN_MOTION    = 15.86229948
ECCENTRICITY   = .00015336
INCLINATION    = 42.9984
RA_OF_ASC_NODE = 149.0206
ARG_OF_PERICENTER = 277.6287
MEAN_ANOMALY   = 323.8897

EPHEMERIS_TYPE = 0
CLASSIFICATION_TYPE = U
NORAD_CAT_ID   = 67345
ELEMENT_SET_NO = 999
REV_AT_EPOCH   = 282
BSTAR          = -.68542296E-2
MEAN_MOTION_DOT = -.1554248E-1
MEAN_MOTION_DDOT = 0

CCSDS_OMM_VERS = 2.0
CREATION_DATE  = 
ORIGINATOR     = 

OBJECT_NAME    = STARLINK-36472
OBJECT_ID      = 2026-003N
CENTER_NAME    = EARTH
REF_FRAME      = TEME
TIME_SYSTEM    = UTC
MEAN_ELEMENT_THEORY = SGP/SGP4

EPOCH          = 2026-01-19T22:00:01.999584
MEAN_MOTION    = 15.86239773
ECCENTRICITY   = .00015694
INCLINATION    = 42.9985
RA_OF_ASC_NODE = 149.0149
ARG_OF_PERICENTER = 277.5668
MEAN_ANOMALY   = 326.0628

EPHEMERIS_TYPE = 0
CLASSIFICATION_TYPE = U
NORAD_CAT_ID   = 67346
ELEMENT_SET_NO = 999
REV_AT_EPOCH   = 282
BSTAR          = -.68601748E-2
MEAN_MOTION_DOT = -.1556127E-1
MEAN_MOTION_DDOT = 0

CCSDS_OMM_VERS = 2.0
CREATION_DATE  = 
ORIGINATOR     = 

OBJECT_NAME    = STARLINK-36420
OBJECT_ID      = 2026-003P
CENTER_NAME    = EARTH
REF_FRAME      = TEME
TIME_SYSTEM    = UTC
MEAN_ELEMENT_THEORY = SGP/SGP4

EPOCH          = 2026-01-19T22:00:01.999584
MEAN_MOTION    = 15.86244155
ECCENTRICITY   = .0001636
INCLINATION    = 42.9986
RA_OF_ASC_NODE = 149.0033
ARG_OF_PERICENTER = 278.9628
MEAN_ANOMALY   = 329.3741

EPHEMERIS_TYPE = 0
CLASSIFICATION_TYPE = U
NORAD_CAT_ID   = 67347
ELEMENT_SET_NO = 999
REV_AT_EPOCH   = 283
BSTAR          = -.6959846E-2
MEAN_MOTION_DOT = -.1576303E-1
MEAN_MOTION_DDOT = 0

CCSDS_OMM_VERS = 2.0
CREATION_DATE  = 
ORIGINATOR     = 

OBJECT_NAME    = STARLINK-36467
OBJECT_ID      = 2026-003Q
CENTER_NAME    = EARTH
REF_FRAME      = TEME
TIME_SYSTEM    = UTC
MEAN_ELEMENT_THEORY = SGP/SGP4

EPOCH          = 2026-01-19T22:00:01.999584
MEAN_MOTION    = 15.86233667
ECCENTRICITY   = .00016423
INCLINATION    = 42.9986
RA_OF_ASC_NODE = 149.0092
ARG_OF_PERICENTER = 278.9187
MEAN_ANOMALY   = 327.2896

EPHEMERIS_TYPE = 0
CLASSIFICATION_TYPE = U
NORAD_CAT_ID   = 67348
ELEMENT_SET_NO = 999
REV_AT_EPOCH   = 283
BSTAR          = -.69283572E-2
MEAN_MOTION_DOT = -.1569339E-1
MEAN_MOTION_DDOT = 0

CCSDS_OMM_VERS = 2.0
CREATION_DATE  = 
ORIGINATOR     = 

OBJECT_NAME    = STARLINK-36457
OBJECT_ID      = 2026-003R
CENTER_NAME    = EARTH
REF_FRAME      = TEME
TIME_SYSTEM    = UTC
MEAN_ELEMENT_THEORY = SGP/SGP4

EPOCH          = 2026-01-19T22:00:01.999584
MEAN_MOTION    = 15.86229884
ECCENTRICITY   = .0001541
INCLINATION    = 42.9986
RA_OF_ASC_NODE = 148.9967
ARG_OF_PERICENTER = 274.9326
MEAN_ANOMALY   = 336.0654

EPHEMERIS_TYPE = 0
CLASSIFICATION_TYPE = U
NORAD_CAT_ID   = 67349
ELEMENT_SET_NO = 999
REV_AT_EPOCH   = 283
BSTAR          = -.70143658E-2
MEAN_MOTION_DOT = -.1586049E-1
MEAN_MOTION_DDOT = 0

CCSDS_OMM_VERS = 2.0
CREATION_DATE  = 
ORIGINATOR     = 

OBJECT_NAME    = STARLINK-36475
OBJECT_ID      = 2026-003S
CENTER_NAME    = EARTH
REF_FRAME      = TEME
TIME_SYSTEM    = UTC
MEAN_ELEMENT_THEORY = SGP/SGP4

EPOCH          = 2026-01-19T22:00:01.999584
MEAN_MOTION    = 15.86223575
ECCENTRICITY   = .000154
INCLINATION    = 42.9986
RA_OF_ASC_NODE = 148.9900
ARG_OF_PERICENTER = 279.1743
MEAN_ANOMALY   = 334.3770

EPHEMERIS_TYPE = 0
CLASSIFICATION_TYPE = U
NORAD_CAT_ID   = 67350
ELEMENT_SET_NO = 999
REV_AT_EPOCH   = 282
BSTAR          = -.70770439E-2
MEAN_MOTION_DOT = -.1598003E-1
MEAN_MOTION_DDOT = 0

CCSDS_OMM_VERS = 2.0
CREATION_DATE  = 
ORIGINATOR     = 

OBJECT_NAME    = STARLINK-36478
OBJECT_ID      = 2026-003T
CENTER_NAME    = EARTH
REF_FRAME      = TEME
TIME_SYSTEM    = UTC
MEAN_ELEMENT_THEORY = SGP/SGP4

EPOCH          = 2026-01-19T22:00:01.999584
MEAN_MOTION    = 15.86236889
ECCENTRICITY   = .00014007
INCLINATION    = 42.9985
RA_OF_ASC_NODE = 148.9850
ARG_OF_PERICENTER = 276.9795
MEAN_ANOMALY   = 338.5762

EPHEMERIS_TYPE = 0
CLASSIFICATION_TYPE = U
NORAD_CAT_ID   = 67351
ELEMENT_SET_NO = 999
REV_AT_EPOCH   = 282
BSTAR          = -.70820499E-2
MEAN_MOTION_DOT = -.1599793E-1
MEAN_MOTION_DDOT = 0

